[{"OBJECT_NAME":"SL-8 R/B","OBJECT_ID":"1988-053B","EPOCH":"2026-04-04T05:58:53.682816","MEAN_MOTION":14.38933793,"ECCENTRICITY":0.0021363,"INCLINATION":74.0467,"RA_OF_ASC_NODE":65.3478,"ARG_OF_PERICENTER":241.1605,"MEAN_ANOMALY":220.1097,"EPHEMERIS_TYPE":0,"CLASSIFICATION_TYPE":"U","NORAD_CAT_ID":19257,"ELEMENT_SET_NO":999,"REV_AT_EPOCH":98027,"BSTAR":0.00011712634,"MEAN_MOTION_DOT":3.35e-6,"MEAN_MOTION_DDOT":0},{"OBJECT_NAME":"COSMOS 1975","OBJECT_ID":"1988-093A","EPOCH":"2026-04-04T01:32:36.224160","MEAN_MOTION":15.28444338,"ECCENTRICITY":0.00133754,"INCLINATION":82.5159,"RA_OF_ASC_NODE":92.1991,"ARG_OF_PERICENTER":83.8533,"MEAN_ANOMALY":276.4229,"EPHEMERIS_TYPE":0,"CLASSIFICATION_TYPE":"U","NORAD_CAT_ID":19573,"ELEMENT_SET_NO":999,"REV_AT_EPOCH":2328,"BSTAR":0.00041869605,"MEAN_MOTION_DOT":0.00011657,"MEAN_MOTION_DDOT":0},{"OBJECT_NAME":"SL-14 R/B","OBJECT_ID":"1988-093B","EPOCH":"2026-04-04T06:22:15.218688","MEAN_MOTION":14.85689198,"ECCENTRICITY":0.00195919,"INCLINATION":82.5345,"RA_OF_ASC_NODE":18.04,"ARG_OF_PERICENTER":316.9311,"MEAN_ANOMALY":156.1216,"EPHEMERIS_TYPE":0,"CLASSIFICATION_TYPE":"U","NORAD_CAT_ID":19574,"ELEMENT_SET_NO":999,"REV_AT_EPOCH":481,"BSTAR":9.1389089e-5,"MEAN_MOTION_DOT":8.19e-6,"MEAN_MOTION_DDOT":0},{"OBJECT_NAME":"SL-16 R/B","OBJECT_ID":"1988-102B","EPOCH":"2026-04-04T06:18:27.719712","MEAN_MOTION":14.1615528,"ECCENTRICITY":0.0015387,"INCLINATION":70.9971,"RA_OF_ASC_NODE":97.6869,"ARG_OF_PERICENTER":324.2035,"MEAN_ANOMALY":35.8056,"EPHEMERIS_TYPE":0,"CLASSIFICATION_TYPE":"U","NORAD_CAT_ID":19650,"ELEMENT_SET_NO":999,"REV_AT_EPOCH":93051,"BSTAR":0.00015941806,"MEAN_MOTION_DOT":2.68e-6,"MEAN_MOTION_DDOT":0},{"OBJECT_NAME":"INTERCOSMOS 24","OBJECT_ID":"1989-080A","EPOCH":"2026-04-04T05:18:20.845440","MEAN_MOTION":12.5959061,"ECCENTRICITY":0.11870041,"INCLINATION":82.6016,"RA_OF_ASC_NODE":87.7731,"ARG_OF_PERICENTER":233.5104,"MEAN_ANOMALY":115.0865,"EPHEMERIS_TYPE":0,"CLASSIFICATION_TYPE":"U","NORAD_CAT_ID":20261,"ELEMENT_SET_NO":999,"REV_AT_EPOCH":67001,"BSTAR":0.00017783689,"MEAN_MOTION_DOT":6.04e-6,"MEAN_MOTION_DDOT":0},{"OBJECT_NAME":"SL-14 R/B","OBJECT_ID":"1989-080C","EPOCH":"2026-04-04T05:47:39.761088","MEAN_MOTION":12.50518671,"ECCENTRICITY":0.12309115,"INCLINATION":82.5946,"RA_OF_ASC_NODE":156.7903,"ARG_OF_PERICENTER":126.3748,"MEAN_ANOMALY":245.7383,"EPHEMERIS_TYPE":0,"CLASSIFICATION_TYPE":"U","NORAD_CAT_ID":20262,"ELEMENT_SET_NO":999,"REV_AT_EPOCH":66334,"BSTAR":0.0001530285,"MEAN_MOTION_DOT":5.39e-6,"MEAN_MOTION_DDOT":0},{"OBJECT_NAME":"DELTA 1 R/B","OBJECT_ID":"1989-089B","EPOCH":"2026-04-04T03:23:58.195392","MEAN_MOTION":14.50686065,"ECCENTRICITY":0.00701695,"INCLINATION":97.0684,"RA_OF_ASC_NODE":297.5281,"ARG_OF_PERICENTER":43.097,"MEAN_ANOMALY":317.5693,"EPHEMERIS_TYPE":0,"CLASSIFICATION_TYPE":"U","NORAD_CAT_ID":20323,"ELEMENT_SET_NO":999,"REV_AT_EPOCH":89942,"BSTAR":0.00015180648,"MEAN_MOTION_DOT":5.8e-6,"MEAN_MOTION_DDOT":0},{"OBJECT_NAME":"ARIANE 40 R/B","OBJECT_ID":"1990-005H","EPOCH":"2026-04-04T04:15:48.034656","MEAN_MOTION":14.39888769,"ECCENTRICITY":0.00112427,"INCLINATION":98.303,"RA_OF_ASC_NODE":154.0729,"ARG_OF_PERICENTER":125.109,"MEAN_ANOMALY":235.1155,"EPHEMERIS_TYPE":0,"CLASSIFICATION_TYPE":"U","NORAD_CAT_ID":20443,"ELEMENT_SET_NO":999,"REV_AT_EPOCH":89647,"BSTAR":0.00015680161,"MEAN_MOTION_DOT":4.51e-6,"MEAN_MOTION_DDOT":0},{"OBJECT_NAME":"DELTA 2 R/B(1)","OBJECT_ID":"1990-008B","EPOCH":"2026-04-04T04:54:10.236960","MEAN_MOTION":15.59608478,"ECCENTRICITY":0.0076251,"INCLINATION":35.6043,"RA_OF_ASC_NODE":6.9815,"ARG_OF_PERICENTER":138.8915,"MEAN_ANOMALY":221.76,"EPHEMERIS_TYPE":0,"CLASSIFICATION_TYPE":"U","NORAD_CAT_ID":20453,"ELEMENT_SET_NO":999,"REV_AT_EPOCH":93011,"BSTAR":0.0010992283,"MEAN_MOTION_DOT":0.00105528,"MEAN_MOTION_DDOT":0},{"OBJECT_NAME":"COSMOS 2058","OBJECT_ID":"1990-010A","EPOCH":"2026-04-04T06:27:28.429056","MEAN_MOTION":15.11584207,"ECCENTRICITY":0.00080088,"INCLINATION":82.4727,"RA_OF_ASC_NODE":22.2249,"ARG_OF_PERICENTER":239.4213,"MEAN_ANOMALY":120.6228,"EPHEMERIS_TYPE":0,"CLASSIFICATION_TYPE":"U","NORAD_CAT_ID":20465,"ELEMENT_SET_NO":999,"REV_AT_EPOCH":94610,"BSTAR":0.00046271431,"MEAN_MOTION_DOT":7.885e-5,"MEAN_MOTION_DDOT":0},{"OBJECT_NAME":"SL-14 R/B","OBJECT_ID":"1990-010B","EPOCH":"2026-04-03T21:52:55.834176","MEAN_MOTION":14.83595821,"ECCENTRICITY":0.00189849,"INCLINATION":82.5006,"RA_OF_ASC_NODE":243.6908,"ARG_OF_PERICENTER":213.2555,"MEAN_ANOMALY":146.7469,"EPHEMERIS_TYPE":0,"CLASSIFICATION_TYPE":"U","NORAD_CAT_ID":20466,"ELEMENT_SET_NO":999,"REV_AT_EPOCH":93222,"BSTAR":0.00010025833,"MEAN_MOTION_DOT":8.52e-6,"MEAN_MOTION_DDOT":0},{"OBJECT_NAME":"SL-14 R/B","OBJECT_ID":"1990-018B","EPOCH":"2026-04-04T06:59:29.419872","MEAN_MOTION":14.82172383,"ECCENTRICITY":0.00164304,"INCLINATION":82.5242,"RA_OF_ASC_NODE":199.1663,"ARG_OF_PERICENTER":12.913,"MEAN_ANOMALY":347.2501,"EPHEMERIS_TYPE":0,"CLASSIFICATION_TYPE":"U","NORAD_CAT_ID":20511,"ELEMENT_SET_NO":999,"REV_AT_EPOCH":92637,"BSTAR":8.6165151e-5,"MEAN_MOTION_DOT":7.11e-6,"MEAN_MOTION_DDOT":0},{"OBJECT_NAME":"HST","OBJECT_ID":"1990-037B","EPOCH":"2026-04-03T16:03:47.002464","MEAN_MOTION":15.29899616,"ECCENTRICITY":0.0002132,"INCLINATION":28.4724,"RA_OF_ASC_NODE":229.5454,"ARG_OF_PERICENTER":51.9469,"MEAN_ANOMALY":308.1319,"EPHEMERIS_TYPE":0,"CLASSIFICATION_TYPE":"U","NORAD_CAT_ID":20580,"ELEMENT_SET_NO":999,"REV_AT_EPOCH":77714,"BSTAR":0.00040809,"MEAN_MOTION_DOT":0.00012406,"MEAN_MOTION_DDOT":0},{"OBJECT_NAME":"SL-16 R/B","OBJECT_ID":"1990-046B","EPOCH":"2026-04-04T03:30:33.834816","MEAN_MOTION":14.15019283,"ECCENTRICITY":0.001655,"INCLINATION":70.9987,"RA_OF_ASC_NODE":244.4455,"ARG_OF_PERICENTER":266.6066,"MEAN_ANOMALY":93.3163,"EPHEMERIS_TYPE":0,"CLASSIFICATION_TYPE":"U","NORAD_CAT_ID":20625,"ELEMENT_SET_NO":999,"REV_AT_EPOCH":85199,"BSTAR":4.7557008e-5,"MEAN_MOTION_DOT":4.4e-7,"MEAN_MOTION_DDOT":0},{"OBJECT_NAME":"COSMOS 2084","OBJECT_ID":"1990-055A","EPOCH":"2026-04-04T03:46:47.098848","MEAN_MOTION":15.05811854,"ECCENTRICITY":0.00129919,"INCLINATION":62.7896,"RA_OF_ASC_NODE":248.7034,"ARG_OF_PERICENTER":198.836,"MEAN_ANOMALY":161.2261,"EPHEMERIS_TYPE":0,"CLASSIFICATION_TYPE":"U","NORAD_CAT_ID":20663,"ELEMENT_SET_NO":999,"REV_AT_EPOCH":94015,"BSTAR":0.00037541078,"MEAN_MOTION_DOT":5.283e-5,"MEAN_MOTION_DDOT":0},{"OBJECT_NAME":"SL-6 R/B(2)","OBJECT_ID":"1990-055D","EPOCH":"2026-04-04T04:12:10.045728","MEAN_MOTION":15.03726066,"ECCENTRICITY":0.00289754,"INCLINATION":62.7828,"RA_OF_ASC_NODE":167.1758,"ARG_OF_PERICENTER":352.7118,"MEAN_ANOMALY":7.3556,"EPHEMERIS_TYPE":0,"CLASSIFICATION_TYPE":"U","NORAD_CAT_ID":20666,"ELEMENT_SET_NO":999,"REV_AT_EPOCH":94202,"BSTAR":0.00025661579,"MEAN_MOTION_DOT":3.367e-5,"MEAN_MOTION_DDOT":0},{"OBJECT_NAME":"SL-8 R/B","OBJECT_ID":"1990-078B","EPOCH":"2026-04-04T07:19:13.012608","MEAN_MOTION":14.89834713,"ECCENTRICITY":0.03574781,"INCLINATION":82.9045,"RA_OF_ASC_NODE":228.2567,"ARG_OF_PERICENTER":287.5485,"MEAN_ANOMALY":68.6979,"EPHEMERIS_TYPE":0,"CLASSIFICATION_TYPE":"U","NORAD_CAT_ID":20775,"ELEMENT_SET_NO":999,"REV_AT_EPOCH":81311,"BSTAR":0.0005641009,"MEAN_MOTION_DOT":0.00019039,"MEAN_MOTION_DDOT":0}]
